SCD 1                   
1 22490U 93009B   26192.06025916  .00000300  00000+0  31538-4 0  9993
2 22490  24.9701  60.1718 0041946  30.9459 124.5127 14.46127708764570
TECHSAT 1B (GO-32)      
1 25397U 98043D   26191.38503001  .00000024  00000+0  30598-4 0  9993
2 25397  99.0081 184.7300 0002059 122.4891 237.6486 14.24432755454636
SCD 2                   
1 25504U 98060A   26191.72135020  .00000294  00000+0  31207-4 0  9999
2 25504  24.9955 287.0279 0016843  12.6653 119.2000 14.45534023463739
DLR-TUBSAT              
1 25757U 99029B   26191.78496264  .00000029  00000+0  19109-4 0  9994
2 25757  98.6707 188.0667 0012979 279.3505  80.6221 14.52432671436670
TERRA                   
1 25994U 99068A   26192.18700884  .00000196  00000+0  48846-4 0  9996
2 25994  97.9443 240.7802 0003247 130.6045 266.1172 14.61121721413116
MAROC-TUBSAT            
1 27004U 01056D   26191.73369308 -.00000019  00000+0  31169-4 0  9997
2 27004  99.8095   9.0383 0020634  83.0792 344.3434 13.70263380229418
AQUA                    
1 27424U 02022A   26192.20974602  .00000431  00000+0  95483-4 0  9995
2 27424  98.4292 161.9750 0000822 106.4128 310.5864 14.62193614286783
SHIYAN-1 (SY-1)         
1 28220U 04012A   26192.18744073  .00008372  00000+0  25401-3 0  9999
2 28220  97.8692 271.8248 0004066 294.6844  65.3974 15.34386013214771
AURA                    
1 28376U 04026A   26192.15620443  .00000430  00000+0  96806-4 0  9992
2 28376  98.3429 148.8100 0001273  92.6083 267.5263 14.61364310169710
IRS-P5 (CARTOSAT-1)     
1 28649U 05017A   26190.49211259  .00000943  00000+0  10046-3 0  9992
2 28649  97.5305 212.5447 0001681  56.2573 303.8806 14.91108210147141
SINAH 1                 
1 28893U 05043D   26191.83611025  .00000160  00000+0  39707-4 0  9993
2 28893  98.2887 326.3010 0014071 197.2965 162.7760 14.64173754103983
RESURS-DK 1             
1 29228U 06021A   26192.22838867  .00001017  00000+0  63072-4 0  9996
2 29228  69.9327 277.3163 0006874 275.5943  84.4439 15.13310988106211
ARIRANG-2 (KOMPSAT-2)   
1 29268U 06031A   26192.21283593 -.00000079  00000+0 -63029-5 0  9992
2 29268  97.8317  15.4980 0014600   3.5584 107.0386 14.64673347 64995
LAPAN-TUBSAT            
1 29709U 07001A   26192.15916602  .00000619  00000+0  77387-4 0  9996
2 29709  98.1353 191.9242 0013550 105.5885 254.6826 14.85974702 54719
HAIYANG-1B              
1 31113U 07010A   26191.42818984  .00000052  00000+0  35367-4 0  9994
2 31113  98.3511 172.3737 0014485 128.9609 231.2868 14.31032554  3961
TERRASAR-X              
1 31698U 07026A   26188.47915537  .00000240  00000+0  14624-4 0  9994
2 31698  97.4461 195.8972 0001878  86.9540 273.1909 15.19153986 56300
CARTOSAT-2A             
1 32783U 08021A   26192.19500529  .00000010  00000+0  80716-5 0  9992
2 32783  97.7626 240.0829 0012785  39.3281 320.8857 14.79272669982359
HUANJING 1A (HJ-1A)     
1 33320U 08041A   26192.23749900  .00000854  00000+0  10830-3 0  9999
2 33320  97.6693 177.1472 0020526  61.6547 298.6735 14.84042631961971
HUANJING 1B (HJ-1B)     
1 33321U 08041B   26192.21760579  .00000854  00000+0  10920-3 0  9993
2 33321  97.6532 180.2272 0037923 103.7051 256.8390 14.83362161961979
GEOEYE 1                
1 33331U 08042A   26192.19891837  .00000221  00000+0  50615-4 0  9998
2 33331  98.1328 265.8416 0004246   0.2560 359.8644 14.64647430953664
THEOS                   
1 33396U 08049A   26192.20563014  .00000119  00000+0  75573-4 0  9997
2 33396  98.5563 248.7081 0001107  87.3062 272.8241 14.20136846921370
COSMO-SKYMED 3          
1 33412U 08054A   26192.17904372  .00001358  00000+0  94677-4 0  9996
2 33412  97.8264  51.1472 0015487 179.0594 181.0665 15.07097723960554
YAOGAN-4                
1 33446U 08061A   26191.23904740  .00000606  00000+0  80608-4 0  9990
2 33446  97.9305 124.5797 0014279   1.9835 358.1433 14.83245790949089
GOSAT (IBUKI)           
1 33492U 09002A   26191.25211760 -.00000055  00000+0 -12238-5 0  9997
2 33492  98.0915 302.0457 0001034  88.6000 271.5323 14.67535064934848
DEIMOS-1                
1 35681U 09041A   26192.19693285  .00000197  00000+0  36210-4 0  9992
2 35681  97.7429 348.3875 0002738  98.0943 262.0577 14.75260893910424
DUBAISAT-1              
1 35682U 09041B   26189.93067776  .00000591  00000+0  95098-4 0  9998
2 35682  98.0077 322.9535 0010414   8.9680 351.1713 14.75160197908309
